NORAD_CAT_ID,OBJECT_NAME,OBJECT_TYPE,EPOCH,MEAN_MOTION,ECCENTRICITY,INCLINATION,RA_OF_ASC_NODE,ARG_OF_PERICENTER,MEAN_ANOMALY,BSTAR,MEAN_MOTION_DOT,MEAN_MOTION_DDOT,TLE_LINE0,TLE_LINE1,TLE_LINE2,SEMIMAJOR_AXIS,PERIOD,APOGEE,PERIGEE,DECAYED
55941.0,STARLINK-5914,PAYLOAD,2023-12-04 15:34:28,14.98323354,0.0002894,69.9982,207.3441,262.4036,97.6794,0.00012339,1.379e-05,0.0,0 STARLINK-5914,1 55941U 23037AD  23338.64893804  .00001379  00000-0  12339-3 0  9991,2 55941  69.9982 207.3441 0002894 262.4036  97.6794 14.98323354 40587,6950.213,96.107,574.09,570.067,0.0
55941.0,STARLINK-5914,PAYLOAD,2023-12-05 01:11:16,14.98329654,0.0002787,69.9985,206.3345,260.0881,99.9963,0.00018455,2.11e-05,0.0,0 STARLINK-5914,1 55941U 23037AD  23339.04949333  .00002110  00000-0  18455-3 0  9994,2 55941  69.9985 206.3345 0002787 260.0881  99.9963 14.98329654 40644,6950.194,96.107,573.996,570.122,0.0
55941.0,STARLINK-5914,PAYLOAD,2023-12-06 01:13:17,14.9833319,0.000274,69.9986,203.81,260.0931,99.9919,0.00010728,1.187e-05,0.0,0 STARLINK-5914,1 55941U 23037AD  23340.05089246  .00001187  00000-0  10728-3 0  9993,2 55941  69.9986 203.8100 0002740 260.0931  99.9919 14.98333190 40798,6950.183,96.107,573.952,570.144,0.0
55941.0,STARLINK-5914,PAYLOAD,2023-12-06 22:03:02,14.98333775,0.0002525,69.9996,201.6223,262.0427,98.0446,-4.4061e-05,-6.19e-06,0.0,0 STARLINK-5914,1 55941U 23037AD  23340.91877445 -.00000619  00000-0 -44061-4 0  9993,2 55941  69.9996 201.6223 0002525 262.0427  98.0446 14.98333775 40585,6950.181,96.107,573.801,570.291,0.0
55941.0,STARLINK-5914,PAYLOAD,2023-12-07 01:15:18,14.98331827,0.0002564,69.9988,201.2859,261.5714,98.5155,-6.5009e-05,-8.69e-06,0.0,0 STARLINK-5914,1 55941U 23037AD  23341.05229600 -.00000869  00000-0 -65009-4 0  9995,2 55941  69.9988 201.2859 0002564 261.5714  98.5155 14.98331827 40941,6950.187,96.107,573.834,570.27,0.0
55941.0,STARLINK-5914,PAYLOAD,2023-12-07 14:04:22,14.9833299,0.0002505,69.9989,199.9379,266.1305,93.9568,-1.1094e-05,-2.25e-06,0.0,0 STARLINK-5914,1 55941U 23037AD  23341.58637226 -.00000225  00000-0 -11094-4 0  9991,2 55941  69.9989 199.9379 0002505 266.1305  93.9568 14.98332990 40684,6950.184,96.107,573.79,570.308,0.0
55941.0,STARLINK-5914,PAYLOAD,2023-12-08 01:17:19,14.98330708,0.000268,69.9989,198.7594,262.8206,97.2648,-3.242e-05,-4.8e-06,0.0,0 STARLINK-5914,1 55941U 23037AD  23342.05369302 -.00000480  00000-0 -32420-4 0  9990,2 55941  69.9989 198.7594 0002680 262.8206  97.2648 14.98330708 41094,6950.191,96.107,573.918,570.193,0.0
55941.0,STARLINK-5914,PAYLOAD,2023-12-09 01:19:19,14.98333152,0.0002774,69.9975,196.2365,269.9333,90.1508,2.4654e-05,2.01e-06,0.0,0 STARLINK-5914,1 55941U 23037AD  23343.05508853  .00000201  00000-0  24654-4 0  9996,2 55941  69.9975 196.2365 0002774 269.9333  90.1508 14.98333152 41241,6950.183,96.107,573.976,570.12,0.0
55941.0,STARLINK-5914,PAYLOAD,2023-12-09 23:45:12,14.9833036,0.0002485,69.9995,193.877,277.6876,82.4,-2.7512e-05,-4.21e-06,0.0,0 STARLINK-5914,1 55941U 23037AD  23343.98973183 -.00000421  00000-0 -27512-4 0  9992,2 55941  69.9995 193.8770 0002485 277.6876  82.4000 14.98330360 41387,6950.192,96.107,573.784,570.33,0.0
55941.0,STARLINK-5914,PAYLOAD,2023-12-10 14:10:24,14.98333141,0.0002712,69.9988,192.3631,265.8953,94.1896,2.7298e-06,-6e-07,0.0,0 STARLINK-5914,1 55941U 23037AD  23344.59056657 -.00000060  00000-0  27298-5 0  9998,2 55941  69.9988 192.3631 0002712 265.8953  94.1896 14.98333141 41133,6950.183,96.107,573.933,570.163,0.0
55941.0,STARLINK-5914,PAYLOAD,2023-12-10 22:11:05,14.98332656,0.0002588,69.9982,191.5209,266.1366,93.9498,4.2746e-05,4.17e-06,0.0,0 STARLINK-5914,1 55941U 23037AD  23344.92436592  .00000417  00000-0  42746-4 0  9994,2 55941  69.9982 191.5209 0002588 266.1366  93.9498 14.98332656 41182,6950.185,96.107,573.848,570.251,0.0
55941.0,STARLINK-5914,PAYLOAD,2023-12-10 23:47:13,14.98332797,0.0002609,69.9982,191.3524,267.5937,92.4923,4.1884e-05,4.07e-06,0.0,0 STARLINK-5914,1 55941U 23037AD  23344.99112576  .00000407  00000-0  41884-4 0  9995,2 55941  69.9982 191.3524 0002609 267.5937  92.4923 14.98332797 41535,6950.184,96.107,573.863,570.236,0.0
55941.0,STARLINK-5914,PAYLOAD,2023-12-11 14:12:26,14.98332344,0.0002425,69.9986,189.8383,261.1351,98.9533,-2.7438e-05,-4.2e-06,0.0,0 STARLINK-5914,1 55941U 23037AD  23345.59196815 -.00000420  00000-0 -27438-4 0  9996,2 55941  69.9986 189.8383 0002425 261.1351  98.9533 14.98332344 41288,6950.186,96.107,573.736,570.365,0.0
55941.0,STARLINK-5914,PAYLOAD,2023-12-11 22:13:06,14.9833118,0.0002452,69.9985,188.9968,260.9959,99.0922,-3.3699e-05,-4.95e-06,0.0,0 STARLINK-5914,1 55941U 23037AD  23345.92576837 -.00000495  00000-0 -33699-4 0  9997,2 55941  69.9985 188.9968 0002452 260.9959  99.0922 14.98331180 41334,6950.189,96.107,573.758,570.35,0.0
55941.0,STARLINK-5914,PAYLOAD,2023-12-11 23:49:14,14.98330866,0.0002468,69.9985,188.8282,263.0904,96.9974,-3.2734e-05,-4.83e-06,0.0,0 STARLINK-5914,1 55941U 23037AD  23345.99252849 -.00000483  00000-0 -32734-4 0  9994,2 55941  69.9985 188.8282 0002468 263.0904  96.9974 14.98330866 41684,6950.19,96.107,573.771,570.34,0.0
55941.0,STARLINK-5914,PAYLOAD,2023-12-12 14:14:26,14.98340824,0.0002696,69.9979,187.3124,270.9088,89.1763,5.2884e-05,5.38e-06,0.0,0 STARLINK-5914,1 55941U 23037AD  23346.59335740  .00000538  00000-0  52884-4 0  9990,2 55941  69.9979 187.3124 0002696 270.9088  89.1763 14.98340824 41437,6950.159,96.106,573.898,570.151,0.0
55941.0,STARLINK-5914,PAYLOAD,2023-12-12 17:26:38,14.9838209,0.0002272,69.9986,186.9769,247.7147,112.3771,0.00052489,6.184e-05,0.0,0 STARLINK-5914,1 55941U 23037AD  23346.72683779  .00006184  00000-0  52489-3 0  9996,2 55941  69.9986 186.9769 0002272 247.7147 112.3771 14.98382090 41791,6950.032,96.104,573.476,570.318,0.0
55941.0,STARLINK-5914,PAYLOAD,2023-12-12 22:15:05,14.98350486,0.0002534,69.9978,186.4706,281.8811,78.2064,0.00013298,1.495e-05,0.0,0 STARLINK-5914,1 55941U 23037AD  23346.92714199  .00001495  00000-0  13298-3 0  9994,2 55941  69.9978 186.4706 0002534 281.8811  78.2064 14.98350486 41481,6950.13,96.106,573.756,570.233,0.0
55941.0,STARLINK-5914,PAYLOAD,2023-12-12 23:51:13,14.98337417,0.0002941,69.9979,186.3024,277.9915,82.0911,-1.605e-05,-2.85e-06,0.0,0 STARLINK-5914,1 55941U 23037AD  23346.99391145 -.00000285  00000-0 -16050-4 0  9991,2 55941  69.9979 186.3024 0002941 277.9915  82.0911 14.98337417 41839,6950.17,96.107,574.079,569.991,0.0
55941.0,STARLINK-5914,PAYLOAD,2023-12-13 14:16:26,14.98327548,0.0002717,69.9986,184.7885,266.1119,93.973,-4.97e-05,-6.86e-06,0.0,0 STARLINK-5914,1 55941U 23037AD  23347.59475646 -.00000686  00000-0 -49700-4 0  9990,2 55941  69.9986 184.7885 0002717 266.1119  93.9730 14.98327548 41587,6950.2,96.107,573.954,570.177,0.0
55941.0,STARLINK-5914,PAYLOAD,2023-12-13 19:04:51,14.98327297,0.0002728,69.9985,184.2832,265.1244,94.9604,-4.4821e-05,-6.28e-06,0.0,0 STARLINK-5914,1 55941U 23037AD  23347.79503628 -.00000628  00000-0 -44821-4 0  9999,2 55941  69.9985 184.2832 0002728 265.1244  94.9604 14.98327297 41956,6950.201,96.107,573.962,570.17,0.0
55941.0,STARLINK-5914,PAYLOAD,2023-12-13 22:17:07,14.9832877,0.0002645,69.9985,183.9466,262.8048,97.281,-4.0512e-05,-5.76e-06,0.0,0 STARLINK-5914,1 55941U 23037AD  23347.92855488 -.00000576  00000-0 -40512-4 0  9993,2 55941  69.9985 183.9466 0002645 262.8048  97.2810 14.98328770 41636,6950.197,96.107,573.9,570.223,0.0
55941.0,STARLINK-5914,PAYLOAD,2023-12-14 14:18:27,14.983527,0.0002752,69.9985,182.263,269.2376,90.8468,-0.00051387,-6.222e-05,0.0,0 STARLINK-5914,1 55941U 23037AD  23348.59615447 -.00006222  00000-0 -51387-3 0  9991,2 55941  69.9985 182.2630 0002752 269.2376  90.8468 14.98352700 41734,6950.123,96.106,573.9,570.075,0.0
55941.0,STARLINK-5914,PAYLOAD,2023-12-14 20:42:59,14.98349163,0.0002416,69.9985,181.5898,248.2961,111.7941,-0.00052412,-6.344e-05,0.0,0 STARLINK-5914,1 55941U 23037AD  23348.86319324 -.00006344  00000-0 -52412-3 0  9991,2 55941  69.9985 181.5898 0002416 248.2961 111.7941 14.98349163 42117,6950.134,96.106,573.678,570.319,0.0
55941.0,STARLINK-5914,PAYLOAD,2023-12-14 22:19:07,14.9834846,0.0002418,69.9984,181.4214,247.8945,112.1958,-0.00050657,-6.135e-05,0.0,0 STARLINK-5914,1 55941U 23037AD  23348.92995250 -.00006135  00000-0 -50657-3 0  9993,2 55941  69.9984 181.4214 0002418 247.8945 112.1958 14.98348460 41780,6950.136,96.106,573.681,570.32,0.0
55941.0,STARLINK-5914,PAYLOAD,2023-12-15 14:20:29,14.98318262,0.0002806,69.9984,179.7382,261.675,98.4091,-3.2929e-05,-4.86e-06,0.0,0 STARLINK-5914,1 55941U 23037AD  23349.59755977 -.00000486  00000-0 -32929-4 0  9993,2 55941  69.9984 179.7382 0002806 261.6750  98.4091 14.98318262 41887,6950.229,96.108,574.044,570.144,0.0
55941.0,STARLINK-5914,PAYLOAD,2023-12-15 19:08:53,14.9831845,0.0002774,69.9986,179.2333,260.1008,99.9838,-2.4476e-05,-3.85e-06,0.0,0 STARLINK-5914,1 55941U 23037AD  23349.79784080 -.00000385  00000-0 -24476-4 0  9998,2 55941  69.9986 179.2333 0002774 260.1008  99.9838 14.98318450 42250,6950.229,96.108,574.022,570.166,0.0
55941.0,STARLINK-5914,PAYLOAD,2023-12-15 22:21:09,14.98318028,0.0002797,69.9984,178.8964,262.0585,98.0257,-2.9233e-05,-4.42e-06,0.0,0 STARLINK-5914,1 55941U 23037AD  23349.93136225 -.00000442  00000-0 -29233-4 0  9996,2 55941  69.9984 178.8964 0002797 262.0585  98.0257 14.98318028 41939,6950.23,96.108,574.039,570.151,0.0
55941.0,STARLINK-5914,PAYLOAD,2023-12-16 14:22:30,14.98318938,0.000286,69.9982,177.2127,265.3526,94.7306,2.5556e-05,2.12e-06,0.0,0 STARLINK-5914,1 55941U 23037AD  23350.59896480  .00000212  00000-0  25556-4 0  9993,2 55941  69.9982 177.2127 0002860 265.3526  94.7306 14.98318938 42033,6950.227,96.108,574.08,570.104,0.0
55941.0,STARLINK-5914,PAYLOAD,2023-12-16 19:10:54,14.98318686,0.0002848,69.9983,176.7079,264.6207,95.4627,2.2741e-05,1.78e-06,0.0,0 STARLINK-5914,1 55941U 23037AD  23350.79924645  .00000178  00000-0  22741-4 0  9994,2 55941  69.9983 176.7079 0002848 264.6207  95.4627 14.98318686 42403,6950.228,96.108,574.072,570.113,0.0
